[{"OBJECT_NAME":"ONEWEB-0049","OBJECT_ID":"2020-008Z","EPOCH":"2026-03-09T21:10:54.676128","MEAN_MOTION":13.10369947,"ECCENTRICITY":0.00017754,"INCLINATION":87.8767,"RA_OF_ASC_NODE":56.0489,"ARG_OF_PERICENTER":71.633,"MEAN_ANOMALY":288.4991,"EPHEMERIS_TYPE":0,"CLASSIFICATION_TYPE":"U","NORAD_CAT_ID":45154,"ELEMENT_SET_NO":999,"REV_AT_EPOCH":29502,"BSTAR":0.0013760027,"MEAN_MOTION_DOT":4.93e-6,"MEAN_MOTION_DDOT":0},{"OBJECT_NAME":"UNKNOWN","OBJECT_ID":"","EPOCH":"2026-03-08T14:43:42.855744","MEAN_MOTION":12.81802987,"ECCENTRICITY":0.02531165,"INCLINATION":102.8349,"RA_OF_ASC_NODE":188.1931,"ARG_OF_PERICENTER":226.8521,"MEAN_ANOMALY":131.1151,"EPHEMERIS_TYPE":0,"CLASSIFICATION_TYPE":"U","NORAD_CAT_ID":270038,"ELEMENT_SET_NO":999,"REV_AT_EPOCH":29139,"BSTAR":0.05035361,"MEAN_MOTION_DOT":0.00013424,"MEAN_MOTION_DDOT":0}]
